LEMUR-2-DEMBITZ         
1 42842U 17042T   26068.47492167  .00020231  00000+0  76561-3 0  9991
2 42842  97.3807 250.9241 0006961  17.1421 343.0051 15.26947128473114
STARLINK-31010          
1 58519U 23191M   26067.33336806 -.00005558  00000+0 -19262-3 0  9994
2 58519  42.9996 111.1992 0001070 282.2634  18.6268 15.27575293  5796
